NORAD_CAT_ID,OBJECT_NAME,OBJECT_TYPE,EPOCH,MEAN_MOTION,ECCENTRICITY,INCLINATION,RA_OF_ASC_NODE,ARG_OF_PERICENTER,MEAN_ANOMALY,BSTAR,MEAN_MOTION_DOT,MEAN_MOTION_DDOT,TLE_LINE0,TLE_LINE1,TLE_LINE2,SEMIMAJOR_AXIS,PERIOD,APOGEE,PERIGEE,DECAYED
52486.0,STARLINK-3918,PAYLOAD,2022-08-22 12:00:00,15.08811816,0.0001696,53.2175,113.4404,68.3369,339.2021,0.0027294,0.00043385,0.0,0 STARLINK-3918,1 52486U 22049AM  22234.50001157  .00043385  00000-0  27294-2 0  9993,2 52486  53.2175 113.4404 0001696  68.3369 339.2021 15.08811816  1307,6917.967,95.439,541.005,538.658,0.0
52486.0,STARLINK-3918,PAYLOAD,2022-08-22 22:00:00,15.08846726,0.0001833,53.2175,111.5715,65.1153,86.9031,-0.0009968,-0.0001612,0.0,0 STARLINK-3918,1 52486U 22049AM  22234.91667824 -.00016120  00000-0 -99680-3 0  9995,2 52486  53.2175 111.5715 0001833  65.1153  86.9031 15.08846726  1305,6917.86,95.437,540.993,538.457,0.0
52486.0,STARLINK-3918,PAYLOAD,2022-08-23 06:00:00,15.08854578,0.0001819,53.2172,110.075,63.9343,99.6742,-0.0011621,-0.00018743,0.0,0 STARLINK-3918,1 52486U 22049AM  22235.25001157 -.00018743  00000-0 -11621-2 0  9995,2 52486  53.2172 110.0750 0001819  63.9343  99.6742 15.08854578 16991,6917.8359999999975,95.437,540.9590000000002,538.442,0.0
52486.0,STARLINK-3918,PAYLOAD,2022-08-23 14:00:01,15.08831462,0.0001729,53.2174,108.5774,72.3405,102.8752,0.0021941,0.00034796,0.0,0 STARLINK-3918,1 52486U 22049AM  22235.58334491  .00034796  00000-0  21941-2 0  9991,2 52486  53.2174 108.5774 0001729  72.3405 102.8752 15.08831462  1308,6917.906,95.438,540.9680000000002,538.575,0.0
52486.0,STARLINK-3918,PAYLOAD,2022-08-23 22:00:01,15.0885313,0.0001844999999999,53.2172,107.0828,67.1332,119.7475,-0.00080645,-0.00013105,0.0,0 STARLINK-3918,1 52486U 22049AM  22235.91668981 -.00013105  00000-0 -80645-3 0  9992,2 52486  53.2172 107.0828 0001845  67.1332 119.7475 15.08853130 17098,6917.84,95.437,540.982,538.429,0.0
52486.0,STARLINK-3918,PAYLOAD,2022-08-24 14:00:01,15.08847868,0.0001703,53.2169,104.0885,74.4577,135.577,-0.00073422,-0.00011957,0.0,0 STARLINK-3918,1 52486U 22049AM  22236.58334491 -.00011957  00000-0 -73422-3 0  9990,2 52486  53.2169 104.0885 0001703  74.4577 135.5770 15.08847868  1301,6917.856,95.437,540.899,538.543,0.0
52486.0,STARLINK-3918,PAYLOAD,2022-08-24 22:00:00,15.08831069,0.0001773,53.2167,102.594,67.3285,154.3083,-0.00042247,-7.004e-05,0.0,0 STARLINK-3918,1 52486U 22049AM  22236.91667824 -.00007004  00000-0 -42247-3 0  9995,2 52486  53.2167 102.5940 0001773  67.3285 154.3083 15.08831069  1300,6917.908,95.438,540.999,538.5459999999998,0.0
52486.0,STARLINK-3918,PAYLOAD,2022-08-25 06:00:02,15.08849595,0.0001728,53.2164,101.0969,67.3638,165.912,-0.0019958,-0.0003191999999999,0.0,0 STARLINK-3918,1 52486U 22049AM  22237.25002315 -.00031920  00000-0 -19958-2 0  9997,2 52486  53.2164 101.0969 0001728  67.3638 165.9120 15.08849595 17292,6917.851,95.437,540.911,538.521,0.0
52486.0,STARLINK-3918,PAYLOAD,2022-08-25 14:00:01,15.08838706,0.0001606,53.2169,99.6017,70.8461,173.9167,0.00451,0.00072222,0.0,0 STARLINK-3918,1 52486U 22049AM  22237.58334491  .00072222  00000-0  45100-2 0  9992,2 52486  53.2169  99.6017 0001606  70.8461 173.9167 15.08838706  1308,6917.884,95.438,540.86,538.638,0.0
52486.0,STARLINK-3918,PAYLOAD,2022-08-25 22:00:00,15.08834255,0.0001603,53.2163,98.105,64.4348,191.9178,-5.2046e-05,-1.116e-05,0.0,0 STARLINK-3918,1 52486U 22049AM  22237.91667824 -.00001116  00000-0 -52046-4 0  9993,2 52486  53.2163  98.1050 0001603  64.4348 191.9178 15.08834255  1300,6917.898,95.438,540.872,538.654,0.0
52486.0,STARLINK-3918,PAYLOAD,2022-08-26 06:00:00,15.08856187,0.000154,53.2161,96.6078,64.1948,203.7388,-0.0022345,-0.0003569,0.0,0 STARLINK-3918,1 52486U 22049AM  22238.25001157 -.00035690  00000-0 -22345-2 0  9993,2 52486  53.2161  96.6078 0001540  64.1948 203.7388 15.08856187 17450,6917.831,95.437,540.761,538.631,0.0
52486.0,STARLINK-3918,PAYLOAD,2022-08-26 14:00:01,15.08833786,0.000154,53.2162,95.1102,72.1869,207.4105,0.0017204999999999,0.00027195,0.0,0 STARLINK-3918,1 52486U 22049AM  22238.58335648  .00027195  00000-0  17205-2 0  9992,2 52486  53.2162  95.1102 0001540  72.1869 207.4105 15.08833786  1309,6917.899,95.438,540.83,538.6990000000002,0.0
52486.0,STARLINK-3918,PAYLOAD,2022-08-26 20:00:01,15.08853423,0.0001635,53.2161,93.9894,66.1829,132.0514,-0.0011878,-0.00019149,0.0,0 STARLINK-3918,1 52486U 22049AM  22238.83334491 -.00019149  00000-0 -11878-2 0  9997,2 52486  53.2161  93.9894 0001635  66.1829 132.0514 15.08853423 17535,6917.839,95.437,540.835,538.573,0.0
52486.0,STARLINK-3918,PAYLOAD,2022-08-26 22:00:00,15.08841969,0.0001682,53.2162,93.6156,64.3111,226.8272,0.00029204,4.363e-05,0.0,0 STARLINK-3918,1 52486U 22049AM  22238.91667824  .00004363  00000-0  29204-3 0  9998,2 52486  53.2162  93.6156 0001682  64.3111 226.8272 15.08841969  1303,6917.874,95.437,540.903,538.576,0.0
52486.0,STARLINK-3918,PAYLOAD,2022-08-27 14:00:01,15.08857955,0.0001564999999999,53.2165,90.6208,71.7901,242.5561,-1.2345e-05,-4.85e-06,0.0,0 STARLINK-3918,1 52486U 22049AM  22239.58334491 -.00000485  00000-0 -12345-4 0  9995,2 52486  53.2165  90.6208 0001565  71.7901 242.5561 15.08857955  1308,6917.826,95.436,540.773,538.6080000000002,0.0
52486.0,STARLINK-3918,PAYLOAD,2022-08-27 22:00:00,15.08834255,0.0001656,53.2165,89.1261,62.7848,263.1856,-0.00022978,-3.943e-05,0.0,0 STARLINK-3918,1 52486U 22049AM  22239.91667824 -.00003943  00000-0 -22978-3 0  9995,2 52486  53.2165  89.1261 0001656  62.7848 263.1856 15.08834255  1305,6917.898,95.438,540.909,538.617,0.0
52486.0,STARLINK-3918,PAYLOAD,2022-08-28 14:00:01,15.08822345,0.0001452,53.2168,86.1314,70.4286,278.697,0.001316,0.00020708,0.0,0 STARLINK-3918,1 52486U 22049AM  22240.58334491  .00020708  00000-0  13160-2 0  9999,2 52486  53.2168  86.1314 0001452  70.4286 278.6970 15.08822345 17807,6917.934,95.439,540.804,538.795,0.0
52486.0,STARLINK-3918,PAYLOAD,2022-08-28 22:00:00,15.08821478,0.0001592,53.2168,84.6367,62.0417,298.6690000000001,0.0008835,0.00013794,0.0,0 STARLINK-3918,1 52486U 22049AM  22240.91667824  .00013794  00000-0  88350-3 0  9996,2 52486  53.2168  84.6367 0001592  62.0417 298.6690 15.08821478  1312,6917.937,95.439,540.903,538.701,0.0
52486.0,STARLINK-3918,PAYLOAD,2022-08-29 06:00:02,15.08848956,0.0001493,53.2167,83.1391,64.347,308.0032,-0.0018651,-0.00029856,0.0,0 STARLINK-3918,1 52486U 22049AM  22241.25002315 -.00029856  00000-0 -18651-2 0  9996,2 52486  53.2167  83.1391 0001493  64.3470 308.0032 15.08848956 17904,6917.853,95.437,540.751,538.685,0.0
52486.0,STARLINK-3918,PAYLOAD,2022-08-29 14:00:01,15.08838516,0.0001464,53.2171,81.6421,71.3131,312.5622,0.00078031,0.00012152,0.0,0 STARLINK-3918,1 52486U 22049AM  22241.58334491  .00012152  00000-0  78031-3 0  9993,2 52486  53.2171  81.6421 0001464  71.3131 312.5622 15.08838516  1309,6917.885,95.438,540.763,538.737,0.0
52486.0,STARLINK-3918,PAYLOAD,2022-08-29 22:00:00,15.08833466,0.0001582,53.2171,80.1474,62.8989,332.5811,0.0011905999999999,0.00018708,0.0,0 STARLINK-3918,1 52486U 22049AM  22241.91667824  .00018708  00000-0  11906-2 0  9999,2 52486  53.2171  80.1474 0001582  62.8989 332.5811 15.08833466  1309,6917.9,95.438,540.86,538.6709999999998,0.0
52486.0,STARLINK-3918,PAYLOAD,2022-08-30 14:00:01,15.08869814,0.0001391,53.2172,77.1528,71.7537,346.9207,-0.0023271,-0.00037163,0.0,0 STARLINK-3918,1 52486U 22049AM  22242.58334491 -.00037163  00000-0 -23271-2 0  9990,2 52486  53.2172  77.1528 0001391  71.7537 346.9207 15.08869814  1306,6917.7890000000025,95.436,540.617,538.692,0.0
52486.0,STARLINK-3918,PAYLOAD,2022-08-30 22:00:00,15.08814565,0.0001436,53.2172,75.6581,62.0674,8.2253,0.0015362,0.00024228,0.0,0 STARLINK-3918,1 52486U 22049AM  22242.91667824  .00024228  00000-0  15362-2 0  9994,2 52486  53.2172  75.6581 0001436  62.0674   8.2253 15.08814565 18156,6917.958000000001,95.439,540.817,538.83,0.0
52486.0,STARLINK-3918,PAYLOAD,2022-08-31 14:00:01,15.08843597,0.0001323,53.2172,72.6638,72.5715,20.8769,-0.00024466,-4.18e-05,0.0,0 STARLINK-3918,1 52486U 22049AM  22243.58334491 -.00004180  00000-0 -24466-3 0  9992,2 52486  53.2172  72.6638 0001323  72.5715  20.8769 15.08843597  1301,6917.869000000002,95.437,540.65,538.819,0.0
52486.0,STARLINK-3918,PAYLOAD,2022-08-31 22:00:00,15.088223199999998,0.0001411,53.2171,71.169,63.108,41.9451,0.0019774,0.00031307,0.0,0 STARLINK-3918,1 52486U 22049AM  22243.91667824  .00031307  00000-0  19774-2 0  9992,2 52486  53.2171  71.1690 0001411  63.1080  41.9451 15.08822320 18302,6917.934,95.439,540.776,538.823,0.0
52486.0,STARLINK-3918,PAYLOAD,2022-09-01 14:00:01,15.08857895,0.000135,53.2171,68.1747,73.2493,55.0485,-0.00061816,-0.00010117,0.0,0 STARLINK-3918,1 52486U 22049AM  22244.58335648 -.00010117  00000-0 -61816-3 0  9995,2 52486  53.2171  68.1747 0001350  73.2493  55.0485 15.08857895 18402,6917.826,95.436,540.625,538.757,0.0
52486.0,STARLINK-3918,PAYLOAD,2022-09-01 22:00:00,15.088382500000002,0.0001459,53.217,66.6801,63.4848,76.366,0.0009106,0.00014233,0.0,0 STARLINK-3918,1 52486U 22049AM  22244.91667824  .00014233  00000-0  91060-3 0  9991,2 52486  53.2170  66.6801 0001459  63.4848  76.3660 15.08838250  1306,6917.886,95.438,540.76,538.741,0.0
52486.0,STARLINK-3918,PAYLOAD,2022-09-02 14:00:01,15.08841885,0.0001508,53.2171,63.6859,73.8247,89.2071,-0.00087883,-0.00014248,0.0,0 STARLINK-3918,1 52486U 22049AM  22245.58334491 -.00014248  00000-0 -87883-3 0  9992,2 52486  53.2171  63.6859 0001508  73.8247  89.2071 15.08841885  1307,6917.875,95.437,540.783,538.696,0.0
52486.0,STARLINK-3918,PAYLOAD,2022-09-02 22:00:01,15.08809842,0.0001568,53.2172,62.1911,64.1285,110.5632,0.0029451,0.00046856,0.0,0 STARLINK-3918,1 52486U 22049AM  22245.91668981  .00046856  00000-0  29451-2 0  9997,2 52486  53.2172  62.1911 0001568  64.1285 110.5632 15.08809842  1300,6917.973000000001,95.439,540.922,538.753,0.0
